{
	"properties": [
		{
			"id": "31211bd5a25205c7b3049caa7750790a",
			"street": "53820 Orin Terrace",
			"city": "New Orleans",
			"state": "LA",
			"zip": "70116",
			"rent": "18087.41",
			"userId": null
		},
		{
			"id": "5a68ab742aa28311484af2f0c64a1e83",
			"street": "5 Rusk Crossing",
			"city": "Cleveland",
			"state": "OH",
			"zip": "44111",
			"rent": "55293.94",
			"userId": null
		},
		{
			"id": "2355a0ae02bf92ca860a6133817789ad",
			"street": "676 Eastlawn Pass",
			"city": "Minneapolis",
			"state": "MN",
			"zip": "55448",
			"rent": "12308.47",
			"userId": null
		},
		{
			"id": "cecbed4775e2be53f62851ddf04f94e0",
			"street": "48 Park Meadow Pass",
			"city": "El Paso",
			"state": "TX",
			"zip": "88530",
			"rent": "74561.49",
			"userId": null
		},
		{
			"id": "f3c93539c082b0dcbbc07c5c84ad026a",
			"street": "6 Milwaukee Avenue",
			"city": "Spokane",
			"state": "WA",
			"zip": "99220",
			"rent": "49006.87",
			"userId": null
		},
		{
			"id": "1f3f24a4ea80e8b756a40070abc21dff",
			"street": "78415 Gateway Park",
			"city": "Oxnard",
			"state": "CA",
			"zip": "93034",
			"rent": "95209.20",
			"userId": null
		},
		{
			"id": "ed86449646ee0a2d55cbe9b94553cacb",
			"street": "421 Hoard Place",
			"city": "Salt Lake City",
			"state": "UT",
			"zip": "84199",
			"rent": "12048.88",
			"userId": null
		},
		{
			"id": "b212e5b13a18ea089b969646dd9c02ee",
			"street": "1 Marquette Plaza",
			"city": "Minneapolis",
			"state": "MN",
			"zip": "55448",
			"rent": "6608.80",
			"userId": null
		},
		{
			"id": "af78e7ecfb162d640cc6a24b45403306",
			"street": "110 Eggendart Plaza",
			"city": "Vero Beach",
			"state": "FL",
			"zip": "32964",
			"rent": "43974.75",
			"userId": null
		},
		{
			"id": "b0ceaa93a9b46cfe69c02e4f0779ba87",
			"street": "1735 Express Hill",
			"city": "Chicago",
			"state": "IL",
			"zip": "60697",
			"rent": "54643.98",
			"userId": null
		},
		{
			"id": "467bd91eae0dbdeca8bd37e4b12e3394",
			"street": "321 Cordelia Way",
			"city": "New York City",
			"state": "NY",
			"zip": "10155",
			"rent": "26357.72",
			"userId": null
		},
		{
			"id": "91317db989a9d069ed3dfca9de9fd2a6",
			"street": "7 Division Junction",
			"city": "Fort Worth",
			"state": "TX",
			"zip": "76110",
			"rent": "12257.20",
			"userId": null
		},
		{
			"id": "a0ab5791b3eccfe24bbcf9e0d660c523",
			"street": "06484 Cambridge Alley",
			"city": "Albany",
			"state": "NY",
			"zip": "12255",
			"rent": "78762.73",
			"userId": "08d54c5e0fcee358e4cde4b357e5874b"
		},
		{
			"id": "05dc1be3e15c83621d98119588b11870",
			"street": "435 High Crossing Alley",
			"city": "Suffolk",
			"state": "VA",
			"zip": "23436",
			"rent": "86069.96",
			"userId": null
		},
		{
			"id": "cf7d368740fda998f9a089036e50b870",
			"street": "7515 Scoville Trail",
			"city": "Hot Springs National Park",
			"state": "AR",
			"zip": "71914",
			"rent": "30241.60",
			"userId": null
		},
		{
			"id": "c818a8ccd45c072ae5ad67997d596c85",
			"street": "75 3rd Pass",
			"city": "Portland",
			"state": "OR",
			"zip": "97216",
			"rent": "44179.42",
			"userId": null
		},
		{
			"id": "d23a86432159765a05d12db04a5c8b9e",
			"street": "9458 Waxwing Point",
			"city": "El Paso",
			"state": "TX",
			"zip": "88579",
			"rent": "97513.00",
			"userId": null
		},
		{
			"id": "c60edff02ece8291601f532ac723ad36",
			"street": "13 Butternut Crossing",
			"city": "Jacksonville",
			"state": "FL",
			"zip": "32244",
			"rent": "85725.48",
			"userId": null
		},
		{
			"id": "ecdc9743125e8c3feb7ac8e99ce3f4ea",
			"street": "0 Stuart Road",
			"city": "Harrisburg",
			"state": "PA",
			"zip": "17105",
			"rent": "14989.07",
			"userId": null
		},
		{
			"id": "e17cda85be903b9b17085e7299fb4351",
			"street": "6 Hudson Lane",
			"city": "Baltimore",
			"state": "MD",
			"zip": "21282",
			"rent": "53461.60",
			"userId": null
		},
		{
			"id": "e00560600980e23624687be7babc6b2d",
			"street": "359 Corben Crossing",
			"city": "Miami",
			"state": "FL",
			"zip": "33196",
			"rent": "89281.00",
			"userId": null
		},
		{
			"id": "e70c8a7655821edd684bf46cbc97cdc2",
			"street": "4506 Harbort Crossing",
			"city": "Killeen",
			"state": "TX",
			"zip": "76544",
			"rent": "98263.98",
			"userId": null
		},
		{
			"id": "c6eb21bb2ebe8650cb85baa771da95e6",
			"street": "267 Basil Parkway",
			"city": "Dallas",
			"state": "TX",
			"zip": "75277",
			"rent": "7832.07",
			"userId": null
		},
		{
			"id": "f511098dd23e1305f0a51b6d447cb324",
			"street": "5812 Rieder Circle",
			"city": "Washington",
			"state": "DC",
			"zip": "20470",
			"rent": "30058.52",
			"userId": null
		},
		{
			"id": "1e64f320a1d5907ae20f4193087c4fd4",
			"street": "25 Marcy Junction",
			"city": "Missoula",
			"state": "MT",
			"zip": "59806",
			"rent": "3267.39",
			"userId": null
		},
		{
			"id": "a1b85b9c8ef07bb5d96d5d642ef425e0",
			"street": "134 Express Avenue",
			"city": "Reston",
			"state": "VA",
			"zip": "20195",
			"rent": "79757.46",
			"userId": null
		},
		{
			"id": "545ef28b329903ee472cf03cef20e5be",
			"street": "7936 Russell Crossing",
			"city": "Jamaica",
			"state": "NY",
			"zip": "11447",
			"rent": "85900.90",
			"userId": null
		},
		{
			"id": "2116b5f497f5788ac02b243d6d868c90",
			"street": "242 Hoffman Plaza",
			"city": "Washington",
			"state": "DC",
			"zip": "20046",
			"rent": "2911.88",
			"userId": null
		},
		{
			"id": "911174136034435f5732515985e6f722",
			"street": "1402 Westerfield Park",
			"city": "Indianapolis",
			"state": "IN",
			"zip": "46266",
			"rent": "12644.52",
			"userId": null
		},
		{
			"id": "4b5373b493340d7457339400444996b7",
			"street": "30 Moose Avenue",
			"city": "Greensboro",
			"state": "NC",
			"zip": "27415",
			"rent": "67734.01",
			"userId": null
		},
		{
			"id": "fd1f3e659f13953c007157b18d7ad9e2",
			"street": "5860 Service Circle",
			"city": "Lexington",
			"state": "KY",
			"zip": "40596",
			"rent": "59701.05",
			"userId": null
		},
		{
			"id": "e12e9d23b24eccaaa95d002055d31cf6",
			"street": "7 Nova Place",
			"city": "Ogden",
			"state": "UT",
			"zip": "84409",
			"rent": "74369.88",
			"userId": null
		},
		{
			"id": "eae5cedf8ae59e0185c2af0402d0f4d0",
			"street": "7 Scott Drive",
			"city": "Philadelphia",
			"state": "PA",
			"zip": "19191",
			"rent": "13311.54",
			"userId": null
		},
		{
			"id": "698731ec4a3bbf842230f3d0c035fa7e",
			"street": "1 Troy Park",
			"city": "El Paso",
			"state": "TX",
			"zip": "79923",
			"rent": "60468.21",
			"userId": null
		},
		{
			"id": "83d92c7cb88e90136f5a7a87da26a652",
			"street": "20 Towne Way",
			"city": "Atlanta",
			"state": "GA",
			"zip": "30301",
			"rent": "1075.73",
			"userId": null
		},
		{
			"id": "7fb41fa184ed85732e065b992eddd722",
			"street": "24 Riverside Road",
			"city": "San Diego",
			"state": "CA",
			"zip": "92165",
			"rent": "60804.59",
			"userId": null
		},
		{
			"id": "9d4b7d867e25d08b08878d6dfb5f6d34",
			"street": "86 Michigan Place",
			"city": "Simi Valley",
			"state": "CA",
			"zip": "93094",
			"rent": "54390.70",
			"userId": null
		},
		{
			"id": "13338e5c5794bbbd9205ff235995e6c4",
			"street": "0 Longview Pass",
			"city": "Bradenton",
			"state": "FL",
			"zip": "34282",
			"rent": "88468.48",
			"userId": null
		},
		{
			"id": "53f78d89ef0b5b50467022fc5f3cfb6d",
			"street": "387 Grover Avenue",
			"city": "Newton",
			"state": "MA",
			"zip": "02458",
			"rent": "12684.72",
			"userId": null
		},
		{
			"id": "8acead229789f4184897fd9320cb16e4",
			"street": "0 Forest Circle",
			"city": "Fresno",
			"state": "CA",
			"zip": "93762",
			"rent": "19203.47",
			"userId": null
		},
		{
			"id": "40a759a8396b1d2db432f58b1769c6de",
			"street": "07831 Del Mar Park",
			"city": "Torrance",
			"state": "CA",
			"zip": "90510",
			"rent": "28070.07",
			"userId": null
		},
		{
			"id": "4178b18321d5387db6827c6945a4857e",
			"street": "6612 Valley Edge Street",
			"city": "Clearwater",
			"state": "FL",
			"zip": "33763",
			"rent": "18362.72",
			"userId": null
		},
		{
			"id": "6d36fed37d277017c0fa32bb13e464e9",
			"street": "66474 Alpine Crossing",
			"city": "Washington",
			"state": "DC",
			"zip": "20508",
			"rent": "75122.00",
			"userId": null
		},
		{
			"id": "246ddc5a91a33d5e63424cd91cad2b45",
			"street": "333 Pepper Wood Junction",
			"city": "Charlotte",
			"state": "NC",
			"zip": "28289",
			"rent": "92612.30",
			"userId": null
		},
		{
			"id": "a7b8d58279979dddf4eae897db323ece",
			"street": "872 Banding Lane",
			"city": "Tucson",
			"state": "AZ",
			"zip": "85737",
			"rent": "57849.13",
			"userId": null
		},
		{
			"id": "e43a3885fb59cacdc55292c9054a03b8",
			"street": "1 International Plaza",
			"city": "Atlanta",
			"state": "GA",
			"zip": "30301",
			"rent": "17914.69",
			"userId": null
		},
		{
			"id": "cb64d7a3ff09713a174143145331e947",
			"street": "1 Oak Valley Lane",
			"city": "Harrisburg",
			"state": "PA",
			"zip": "17110",
			"rent": "58694.27",
			"userId": null
		},
		{
			"id": "dcd25addce537d8c28ce11feb1ec41f9",
			"street": "40 Armistice Point",
			"city": "Santa Barbara",
			"state": "CA",
			"zip": "93150",
			"rent": "52570.69",
			"userId": null
		},
		{
			"id": "fba8d888909950352a8eb0e6db0b85a8",
			"street": "444 Green Crossing",
			"city": "Washington",
			"state": "DC",
			"zip": "20456",
			"rent": "51917.26",
			"userId": null
		},
		{
			"id": "168b79b2c8f03165ceeccd95dde411fa",
			"street": "06533 Fairfield Road",
			"city": "Tulsa",
			"state": "OK",
			"zip": "74133",
			"rent": "17642.91",
			"userId": null
		},
		{
			"id": "fb052f3c993191cc6685d33564591943",
			"street": "6121 Gina Crossing",
			"city": "Santa Fe",
			"state": "NM",
			"zip": "87505",
			"rent": "11599.15",
			"userId": null
		},
		{
			"id": "1295c73c2da2820e56f9ef5301d9584a",
			"street": "964 Shelley Parkway",
			"city": "Fort Worth",
			"state": "TX",
			"zip": "76198",
			"rent": "32494.31",
			"userId": null
		},
		{
			"id": "e21b652b8381c469c06a1ab89d2f0468",
			"street": "52 Pleasure Point",
			"city": "Philadelphia",
			"state": "PA",
			"zip": "19136",
			"rent": "53088.14",
			"userId": null
		},
		{
			"id": "0373eb917b22b0e2bd7f9ca64418e62a",
			"street": "872 Messerschmidt Center",
			"city": "Mobile",
			"state": "AL",
			"zip": "36670",
			"rent": "82090.56",
			"userId": null
		},
		{
			"id": "ac6a1a9d96e19f48082ba747c0969bf4",
			"street": "0 Vidon Court",
			"city": "Oklahoma City",
			"state": "OK",
			"zip": "73119",
			"rent": "40280.52",
			"userId": null
		},
		{
			"id": "20affb69100774f446b11c1ba1c7e4fa",
			"street": "07792 Steensland Avenue",
			"city": "Saint Louis",
			"state": "MO",
			"zip": "63180",
			"rent": "26393.60",
			"userId": null
		},
		{
			"id": "99d5cda4be99efeca6f1890ac1bf04bf",
			"street": "33 Di Loreto Junction",
			"city": "Corpus Christi",
			"state": "TX",
			"zip": "78405",
			"rent": "48598.16",
			"userId": null
		},
		{
			"id": "98c0f91dd09c2885178e3ab6da4f3266",
			"street": "466 Ilene Plaza",
			"city": "Shreveport",
			"state": "LA",
			"zip": "71161",
			"rent": "80453.87",
			"userId": null
		},
		{
			"id": "b612b76fac8016138e68a1541c2eaf4a",
			"street": "1750 Sunnyside Road",
			"city": "Irvine",
			"state": "CA",
			"zip": "92717",
			"rent": "11946.51",
			"userId": null
		},
		{
			"id": "ddad033bf7d3e7c78626d8da503995de",
			"street": "11 Debs Parkway",
			"city": "Whittier",
			"state": "CA",
			"zip": "90605",
			"rent": "26302.13",
			"userId": null
		},
		{
			"id": "cc672b2936b531f5146ca3dae5c67c3c",
			"street": "1 Morrow Lane",
			"city": "Stockton",
			"state": "CA",
			"zip": "95205",
			"rent": "99643.24",
			"userId": null
		},
		{
			"id": "75c9c356d1488523c3b2ee0f12540352",
			"street": "834 Schmedeman Circle",
			"city": "Sioux City",
			"state": "IA",
			"zip": "51105",
			"rent": "99352.27",
			"userId": null
		},
		{
			"id": "1d29855fc37c9bfaa286104de181b19f",
			"street": "053 Tony Plaza",
			"city": "Amarillo",
			"state": "TX",
			"zip": "79188",
			"rent": "31260.01",
			"userId": null
		},
		{
			"id": "abab82c97d2b45e7d98f9beec86a23c6",
			"street": "61 Longview Pass",
			"city": "Flushing",
			"state": "NY",
			"zip": "11388",
			"rent": "34297.97",
			"userId": null
		},
		{
			"id": "b3f1fe0b5c5c03e988462e31dbb81b69",
			"street": "48 Florence Trail",
			"city": "Des Moines",
			"state": "IA",
			"zip": "50320",
			"rent": "64762.22",
			"userId": null
		},
		{
			"id": "83b824d0baed36c4ada0c08cb1407698",
			"street": "07162 Hauk Way",
			"city": "Minneapolis",
			"state": "MN",
			"zip": "55480",
			"rent": "65619.54",
			"userId": null
		},
		{
			"id": "43bea189e1149f2fa521c22ac4a976d0",
			"street": "098 Bay Alley",
			"city": "Montgomery",
			"state": "AL",
			"zip": "36104",
			"rent": "21781.09",
			"userId": null
		},
		{
			"id": "a86f12b0bd4a4d32939613177eecc970",
			"street": "61995 Mendota Crossing",
			"city": "South Bend",
			"state": "IN",
			"zip": "46699",
			"rent": "10175.05",
			"userId": null
		},
		{
			"id": "54a24141c8dde64a5a5701718ae112e2",
			"street": "40057 Bluejay Place",
			"city": "Lincoln",
			"state": "NE",
			"zip": "68524",
			"rent": "98614.30",
			"userId": null
		},
		{
			"id": "1716eb27bc3ea0eb0754e7cf3137ebb8",
			"street": "64003 Hanover Court",
			"city": "Pittsburgh",
			"state": "PA",
			"zip": "15215",
			"rent": "38986.83",
			"userId": "aa8bc6be8cdf4db777dbbe72305cd85e"
		},
		{
			"id": "238966bcbeaf5a0dd6cb2979e08f6369",
			"street": "87360 Mendota Terrace",
			"city": "Atlanta",
			"state": "GA",
			"zip": "30343",
			"rent": "7960.89",
			"userId": null
		},
		{
			"id": "f6cc1457fcdab66244159e9ef52bd259",
			"street": "77767 Mallory Point",
			"city": "Boise",
			"state": "ID",
			"zip": "83711",
			"rent": "7567.69",
			"userId": null
		},
		{
			"id": "a06c8ca4418522cf752fd30f974429f2",
			"street": "89905 Wayridge Pass",
			"city": "Honolulu",
			"state": "HI",
			"zip": "96845",
			"rent": "6742.75",
			"userId": null
		},
		{
			"id": "df1ba0d34899f8b5293c242e4e4b460b",
			"street": "441 Bunting Avenue",
			"city": "Cincinnati",
			"state": "OH",
			"zip": "45213",
			"rent": "92445.41",
			"userId": null
		},
		{
			"id": "d3eaa17c7954a174c132658dea816c0c",
			"street": "2 Manitowish Alley",
			"city": "Chicago",
			"state": "IL",
			"zip": "60652",
			"rent": "39434.20",
			"userId": null
		},
		{
			"id": "60c3a37be8dcb061b5c57df77bf899f3",
			"street": "4 Bultman Center",
			"city": "Fort Lauderdale",
			"state": "FL",
			"zip": "33345",
			"rent": "44599.94",
			"userId": null
		},
		{
			"id": "6142529c2d2a7be514bf00056f667523",
			"street": "532 Veith Park",
			"city": "Chicago",
			"state": "IL",
			"zip": "60604",
			"rent": "21262.74",
			"userId": null
		},
		{
			"id": "26f262c571ceb30e2b4d77d9c4510458",
			"street": "96 Surrey Trail",
			"city": "Washington",
			"state": "DC",
			"zip": "20436",
			"rent": "55167.44",
			"userId": null
		},
		{
			"id": "ff4cd5082525bb3d24213f7e660dcdc9",
			"street": "07320 Fuller Parkway",
			"city": "Raleigh",
			"state": "NC",
			"zip": "27605",
			"rent": "70342.23",
			"userId": null
		},
		{
			"id": "6107d6a83717c4359b761c6792dfa54b",
			"street": "7409 Randy Crossing",
			"city": "Washington",
			"state": "DC",
			"zip": "20215",
			"rent": "75865.06",
			"userId": null
		},
		{
			"id": "a50f8366a0029500bd09ec043eba36ca",
			"street": "37 Monica Center",
			"city": "Washington",
			"state": "DC",
			"zip": "20067",
			"rent": "36148.67",
			"userId": null
		},
		{
			"id": "4a056745293f3fbe19dd176dc1282b22",
			"street": "11 School Point",
			"city": "Trenton",
			"state": "NJ",
			"zip": "08603",
			"rent": "79240.73",
			"userId": null
		},
		{
			"id": "f94d70415ab49016ea28a9e868d35b83",
			"street": "82593 Grasskamp Drive",
			"city": "Washington",
			"state": "DC",
			"zip": "20260",
			"rent": "20670.90",
			"userId": null
		},
		{
			"id": "a6e0acd0a66c28ce092da765fb49d50f",
			"street": "7303 Havey Pass",
			"city": "Greenville",
			"state": "SC",
			"zip": "29605",
			"rent": "11726.15",
			"userId": null
		},
		{
			"id": "b6fbc0de799700034189cff136f4c448",
			"street": "160 Boyd Street",
			"city": "Henderson",
			"state": "NV",
			"zip": "89074",
			"rent": "86793.94",
			"userId": null
		},
		{
			"id": "be8e3771adf1e43ce2b61c0f2186c40e",
			"street": "5 Dakota Street",
			"city": "Jackson",
			"state": "TN",
			"zip": "38308",
			"rent": "87056.34",
			"userId": null
		},
		{
			"id": "d93d1abf8770e46d2eed58140856d13f",
			"street": "099 Mayer Lane",
			"city": "Lexington",
			"state": "KY",
			"zip": "40586",
			"rent": "8300.78",
			"userId": null
		},
		{
			"id": "5452f6e249e4e94f7738c18625777212",
			"street": "75596 Anzinger Trail",
			"city": "Tampa",
			"state": "FL",
			"zip": "33680",
			"rent": "7055.28",
			"userId": null
		},
		{
			"id": "b62e730283206bbbd76d9bf282834ce6",
			"street": "75181 Buhler Circle",
			"city": "Palatine",
			"state": "IL",
			"zip": "60078",
			"rent": "42995.38",
			"userId": null
		},
		{
			"id": "314936053ed78d1fe274b478e3cc0249",
			"street": "3 Twin Pines Junction",
			"city": "Los Angeles",
			"state": "CA",
			"zip": "90035",
			"rent": "57253.96",
			"userId": null
		},
		{
			"id": "6b9610ffed84fc9c26b3525eda8e080e",
			"street": "4 Bowman Street",
			"city": "New York City",
			"state": "NY",
			"zip": "10155",
			"rent": "80402.67",
			"userId": null
		},
		{
			"id": "e02954c18e9f5d54b31e55e9dd58c18f",
			"street": "5 Southridge Avenue",
			"city": "Lexington",
			"state": "KY",
			"zip": "40586",
			"rent": "56739.72",
			"userId": null
		},
		{
			"id": "3c47c8c357d919d2042be7e4e7e9251a",
			"street": "634 Jay Crossing",
			"city": "Fresno",
			"state": "CA",
			"zip": "93704",
			"rent": "75202.96",
			"userId": null
		},
		{
			"id": "e226aa55dcadc1d74af908086fabf42e",
			"street": "74 Paget Point",
			"city": "Winter Haven",
			"state": "FL",
			"zip": "33884",
			"rent": "77750.76",
			"userId": null
		},
		{
			"id": "083e24ca6b6c9c3cd0448721f889d028",
			"street": "48377 Haas Circle",
			"city": "Henderson",
			"state": "NV",
			"zip": "89012",
			"rent": "76084.90",
			"userId": null
		},
		{
			"id": "9af78cb66114f98e692fd957507072d8",
			"street": "8 Brickson Park Center",
			"city": "Detroit",
			"state": "MI",
			"zip": "48211",
			"rent": "4651.06",
			"userId": null
		},
		{
			"id": "af60bacc90f17cf5cf15186cbd6de778",
			"street": "165 Glacier Hill Alley",
			"city": "Marietta",
			"state": "GA",
			"zip": "30066",
			"rent": "99423.89",
			"userId": null
		},
		{
			"id": "d1704f5194d75bacd8ded63739f67ebb",
			"street": "8369 Caliangt Plaza",
			"city": "San Bernardino",
			"state": "CA",
			"zip": "92424",
			"rent": "27742.10",
			"userId": null
		},
		{
			"id": "754c430c04cd1769391d39cb70261445",
			"street": "228 American Ash Center",
			"city": "Saint Augustine",
			"state": "FL",
			"zip": "32092",
			"rent": "43182.90",
			"userId": null
		},
		{
			"id": "130857b12f62d9567c4d18718548d5fa",
			"street": "7 Sherman Place",
			"city": "Houston",
			"state": "TX",
			"zip": "77234",
			"rent": "45924.50",
			"userId": null
		},
		{
			"id": "0a0e2c78031a1a77a1a7f57c0e5bb970",
			"street": "8671 Oakridge Hill",
			"city": "Texarkana",
			"state": "TX",
			"zip": "75507",
			"rent": "49422.84",
			"userId": null
		},
		{
			"id": "b5dad567c2ff43394c41b079b2da7d0b",
			"street": "86 Cascade Hill",
			"city": "Inglewood",
			"state": "CA",
			"zip": "90305",
			"rent": "54481.47",
			"userId": null
		},
		{
			"id": "9772a22eda8964c7345e8e1ebe2c87eb",
			"street": "673 Ilene Center",
			"city": "Cedar Rapids",
			"state": "IA",
			"zip": "52410",
			"rent": "42942.97",
			"userId": null
		},
		{
			"id": "ae31c22e47f1b1f9cf77825efdf0798a",
			"street": "649 Portage Road",
			"city": "San Jose",
			"state": "CA",
			"zip": "95133",
			"rent": "99119.37",
			"userId": null
		},
		{
			"id": "8306e41ac68d35ffbd165dacc67698fd",
			"street": "6 Bartelt Park",
			"city": "Mobile",
			"state": "AL",
			"zip": "36689",
			"rent": "92257.83",
			"userId": null
		},
		{
			"id": "267febdfde140bb79c6afedc183dc8df",
			"street": "38491 Vernon Place",
			"city": "Myrtle Beach",
			"state": "SC",
			"zip": "29579",
			"rent": "1948.61",
			"userId": null
		},
		{
			"id": "ce7d8088d2cd96b3cf13b1757e20326c",
			"street": "8 Autumn Leaf Lane",
			"city": "Charleston",
			"state": "WV",
			"zip": "25313",
			"rent": "29029.91",
			"userId": null
		},
		{
			"id": "7e064ec7990f0aafbd7b7c98ecf4a6d5",
			"street": "5103 Marquette Alley",
			"city": "Nashville",
			"state": "TN",
			"zip": "37220",
			"rent": "8758.98",
			"userId": null
		},
		{
			"id": "da10d422366f1a36e650dde5f219c413",
			"street": "15594 Lyons Alley",
			"city": "Lansing",
			"state": "MI",
			"zip": "48919",
			"rent": "87421.60",
			"userId": null
		},
		{
			"id": "60b766246be00111377ce394e6cdf24d",
			"street": "79691 Fuller Alley",
			"city": "Trenton",
			"state": "NJ",
			"zip": "08638",
			"rent": "37519.81",
			"userId": null
		},
		{
			"id": "175576cd85a6370ae23abe0eccfb2b75",
			"street": "5 Corscot Trail",
			"city": "Spring Hill",
			"state": "FL",
			"zip": "34611",
			"rent": "62102.71",
			"userId": null
		},
		{
			"id": "52eb375da8fcc1cc210f5cc927140f1f",
			"street": "28 Hayes Way",
			"city": "Saint Cloud",
			"state": "MN",
			"zip": "56372",
			"rent": "51988.96",
			"userId": null
		},
		{
			"id": "423b6a9e5c87f2a19fa01fc7ff020171",
			"street": "094 Buena Vista Drive",
			"city": "Kansas City",
			"state": "MO",
			"zip": "64101",
			"rent": "14789.20",
			"userId": null
		},
		{
			"id": "7b7b7ce55377f29b05da39cfbe8a496c",
			"street": "55 Banding Drive",
			"city": "Washington",
			"state": "DC",
			"zip": "20456",
			"rent": "42746.29",
			"userId": null
		},
		{
			"id": "1c7b53d63dc0ee5136bd53acdf2f3ea6",
			"street": "811 Vernon Alley",
			"city": "Amarillo",
			"state": "TX",
			"zip": "79105",
			"rent": "1920.52",
			"userId": null
		},
		{
			"id": "b06a1b1e55183f5c61a318598b182e04",
			"street": "715 Spohn Point",
			"city": "Pittsburgh",
			"state": "PA",
			"zip": "15240",
			"rent": "13973.65",
			"userId": null
		},
		{
			"id": "beb43c22c29d157b71795b957b844cc7",
			"street": "5 Mayfield Point",
			"city": "Chicago",
			"state": "IL",
			"zip": "60636",
			"rent": "91818.61",
			"userId": null
		},
		{
			"id": "bfb880f434218d15ffcd57bd2fb2a0f7",
			"street": "1 Meadow Vale Crossing",
			"city": "Irvine",
			"state": "CA",
			"zip": "92619",
			"rent": "1145.28",
			"userId": null
		},
		{
			"id": "c0697994a1b6a1b96ebff39207447676",
			"street": "42924 Oxford Trail",
			"city": "Beaufort",
			"state": "SC",
			"zip": "29905",
			"rent": "72071.50",
			"userId": null
		},
		{
			"id": "b5b09095dd0dce58c4e2d91b576cca19",
			"street": "509 Cherokee Trail",
			"city": "Buffalo",
			"state": "NY",
			"zip": "14220",
			"rent": "76002.43",
			"userId": null
		},
		{
			"id": "af805079e34e868cba89c216493dc638",
			"street": "380 Portage Drive",
			"city": "Charlotte",
			"state": "NC",
			"zip": "28299",
			"rent": "61722.33",
			"userId": null
		},
		{
			"id": "484f8585dabb0a7917d59023a9e725dc",
			"street": "6158 Village Green Center",
			"city": "Nashville",
			"state": "TN",
			"zip": "37228",
			"rent": "34576.00",
			"userId": null
		},
		{
			"id": "dac0a491864aa15f57ddc8c6f6f3ec24",
			"street": "4 Menomonie Road",
			"city": "Washington",
			"state": "DC",
			"zip": "20337",
			"rent": "25102.32",
			"userId": null
		},
		{
			"id": "cee72c3a8ae116cca1c4aefab7d89ede",
			"street": "6591 Express Alley",
			"city": "Northridge",
			"state": "CA",
			"zip": "91328",
			"rent": "82945.17",
			"userId": null
		},
		{
			"id": "6bc59f6fca7d6f559ed689ea96ca22f8",
			"street": "7 Raven Lane",
			"city": "Pinellas Park",
			"state": "FL",
			"zip": "34665",
			"rent": "60191.78",
			"userId": null
		},
		{
			"id": "8f99b73793e7d7eeeed8cdd8ff1a04a6",
			"street": "90 Alpine Circle",
			"city": "Garden Grove",
			"state": "CA",
			"zip": "92844",
			"rent": "96976.32",
			"userId": null
		},
		{
			"id": "ee422faea7f5a886fa018d27267fe354",
			"street": "79 Prairieview Court",
			"city": "Mobile",
			"state": "AL",
			"zip": "36622",
			"rent": "99494.94",
			"userId": null
		},
		{
			"id": "f0068a9a5462bca860e364dfa850758a",
			"street": "2 Nova Plaza",
			"city": "Springfield",
			"state": "IL",
			"zip": "62776",
			"rent": "63640.63",
			"userId": null
		},
		{
			"id": "e6adc09797401893b5e15137f9c1725e",
			"street": "9 Eggendart Circle",
			"city": "Erie",
			"state": "PA",
			"zip": "16534",
			"rent": "49855.46",
			"userId": null
		},
		{
			"id": "05765b847499a74e2d07575718b725f1",
			"street": "1509 Roth Place",
			"city": "Fredericksburg",
			"state": "VA",
			"zip": "22405",
			"rent": "70822.41",
			"userId": null
		},
		{
			"id": "38d482cd24986824374095dd53a7c87a",
			"street": "373 Harper Way",
			"city": "Albuquerque",
			"state": "NM",
			"zip": "87105",
			"rent": "7923.96",
			"userId": null
		},
		{
			"id": "f684f69eb1d26c31088f69929c605bac",
			"street": "671 Oriole Center",
			"city": "Boca Raton",
			"state": "FL",
			"zip": "33499",
			"rent": "44088.33",
			"userId": null
		},
		{
			"id": "cac43d4b1d2f254afc6b9e8e947b588e",
			"street": "24526 Nelson Circle",
			"city": "Pasadena",
			"state": "CA",
			"zip": "91186",
			"rent": "65492.66",
			"userId": null
		},
		{
			"id": "795202e7627327db8fbc4b514b5ba9ae",
			"street": "9537 Forster Hill",
			"city": "Tallahassee",
			"state": "FL",
			"zip": "32399",
			"rent": "88459.56",
			"userId": null
		},
		{
			"id": "dc9b824bee36889f202b588b66af7173",
			"street": "0533 Russell Point",
			"city": "Austin",
			"state": "TX",
			"zip": "78737",
			"rent": "69146.35",
			"userId": null
		},
		{
			"id": "a39d89929780de86cdea8ae49e9be8bc",
			"street": "23 Crest Line Pass",
			"city": "Jacksonville",
			"state": "FL",
			"zip": "32230",
			"rent": "61307.44",
			"userId": null
		},
		{
			"id": "cfb4423649a468b3d4f933583f269d09",
			"street": "902 Londonderry Center",
			"city": "Jamaica",
			"state": "NY",
			"zip": "11499",
			"rent": "16061.28",
			"userId": null
		},
		{
			"id": "7f1cb375a979b866d7ead9101da801f7",
			"street": "9338 Rigney Pass",
			"city": "Sacramento",
			"state": "CA",
			"zip": "94230",
			"rent": "20922.88",
			"userId": null
		},
		{
			"id": "cadeac33867ac771225fa0c68d2582ef",
			"street": "2 Straubel Crossing",
			"city": "Albany",
			"state": "NY",
			"zip": "12237",
			"rent": "94916.94",
			"userId": null
		},
		{
			"id": "cf189b9458b7e7bc8b9737afb791265a",
			"street": "3 Transport Place",
			"city": "Tucson",
			"state": "AZ",
			"zip": "85720",
			"rent": "27144.88",
			"userId": null
		},
		{
			"id": "e0b4e664a290a27e8b05827f3ad437bf",
			"street": "986 Garrison Way",
			"city": "Grand Forks",
			"state": "ND",
			"zip": "58207",
			"rent": "68005.56",
			"userId": null
		},
		{
			"id": "c6f1f6db772451720399ff309581fac0",
			"street": "61 Logan Center",
			"city": "Springfield",
			"state": "MO",
			"zip": "65898",
			"rent": "74578.51",
			"userId": null
		},
		{
			"id": "b55d7907d1e6ef09f3535fc21fd7ac51",
			"street": "40201 Nancy Alley",
			"city": "Palo Alto",
			"state": "CA",
			"zip": "94302",
			"rent": "44473.10",
			"userId": null
		},
		{
			"id": "42d1db5043286a7edd9da41cb14281e9",
			"street": "90 Paget Pass",
			"city": "Zephyrhills",
			"state": "FL",
			"zip": "33543",
			"rent": "12274.24",
			"userId": null
		},
		{
			"id": "cc1b4994a08d1072fdf3c7759bbb0293",
			"street": "2 Arkansas Hill",
			"city": "El Paso",
			"state": "TX",
			"zip": "88525",
			"rent": "21949.16",
			"userId": null
		},
		{
			"id": "0e0bd817902836363c8b724079e707b4",
			"street": "21960 Warrior Plaza",
			"city": "Lexington",
			"state": "KY",
			"zip": "40581",
			"rent": "66525.20",
			"userId": null
		},
		{
			"id": "35595c912c2e73d02f631e9fc2730a70",
			"street": "44350 Helena Pass",
			"city": "Little Rock",
			"state": "AR",
			"zip": "72222",
			"rent": "92195.10",
			"userId": null
		},
		{
			"id": "fab4862aeb69f7ea4dbf4ee79d4a04b3",
			"street": "021 Lukken Court",
			"city": "Glendale",
			"state": "CA",
			"zip": "91205",
			"rent": "42620.23",
			"userId": null
		},
		{
			"id": "0b3b77e1b06aba3306d4be7babb3f30d",
			"street": "28 Caliangt Lane",
			"city": "Wichita",
			"state": "KS",
			"zip": "67230",
			"rent": "6644.11",
			"userId": null
		},
		{
			"id": "a63a0e2a9e4e3ea3ee65508bd87be3de",
			"street": "5689 Rutledge Point",
			"city": "Seminole",
			"state": "FL",
			"zip": "34642",
			"rent": "57875.11",
			"userId": null
		}
	],
	"users": [
		{
			"id": "379bcdbf7566dd1eff15f840eb4d69eb",
			"firstName": "Roby",
			"lastName": "McLaine"
		},
		{
			"id": "a7dd310b4ef837cc575856aa2b560457",
			"firstName": "Chrisy",
			"lastName": "Ryder"
		},
		{
			"id": "b669a86e091b1caa463dd1496e124c0a",
			"firstName": "Camella",
			"lastName": "Darkin"
		},
		{
			"id": "f67df727304fa781716f68ef5a002315",
			"firstName": "Pyotr",
			"lastName": "Artist"
		},
		{
			"id": "636565a9570c607aa09eb51688507662",
			"firstName": "Crysta",
			"lastName": "Riach"
		},
		{
			"id": "3ce012b4282c1d9535c563fde8064d56",
			"firstName": "Benedetto",
			"lastName": "Earpe"
		},
		{
			"id": "a58bc7eb6a9ea398c2a63831b5c277cb",
			"firstName": "Joly",
			"lastName": "Duckfield"
		},
		{
			"id": "1e922e92b39eedebe37d6c503dcc58dc",
			"firstName": "Chrystal",
			"lastName": "Tewes"
		},
		{
			"id": "db6755d326e4368905b53ef4645c4e6b",
			"firstName": "Travers",
			"lastName": "Pavitt"
		},
		{
			"id": "327f85aa076c0a1e5b7f9624c93d47f2",
			"firstName": "Gabriella",
			"lastName": "Syrett"
		},
		{
			"id": "aa8bc6be8cdf4db777dbbe72305cd85e",
			"firstName": "Anny",
			"lastName": "Franies"
		},
		{
			"id": "1f8c156ca5ca5e9150de67d41d751040",
			"firstName": "Winonah",
			"lastName": "Redfield"
		},
		{
			"id": "145c51077cec95f85bd54b8a00529570",
			"firstName": "Henry",
			"lastName": "Carlisi"
		},
		{
			"id": "ef478fa49e82f7d2c35bef491c88d001",
			"firstName": "Keith",
			"lastName": "Ofen"
		},
		{
			"id": "a9a33870adc9ed81985a31323641ccce",
			"firstName": "Euphemia",
			"lastName": "Yukhnin"
		},
		{
			"id": "58eeed5d8dd5d258eca914383ad35600",
			"firstName": "Grissel",
			"lastName": "Zuker"
		},
		{
			"id": "a9a4571794ea40652bfc846338904ff7",
			"firstName": "Mellisent",
			"lastName": "Mulhall"
		},
		{
			"id": "6bb9d93b0ae0eb8da6837626bfb50467",
			"firstName": "Padraic",
			"lastName": "Mingauld"
		},
		{
			"id": "41eb80d20e2ae0e5d65bb86c34c8aa46",
			"firstName": "Diena",
			"lastName": "Kubalek"
		},
		{
			"id": "5e856a9e4bc27c26e90659da7b3f2b7d",
			"firstName": "Zahara",
			"lastName": "Jakolevitch"
		},
		{
			"id": "e2755136516757e883738338437f54be",
			"firstName": "Thadeus",
			"lastName": "Gilhouley"
		},
		{
			"id": "569a41a824d6001f642a41b89cfffdb6",
			"firstName": "Norbert",
			"lastName": "Morando"
		},
		{
			"id": "b7d0693a6743eb6e8481d9bffcac866d",
			"firstName": "Brannon",
			"lastName": "Tomblett"
		},
		{
			"id": "c3c9ff9340c2457078d2bf9ab6c848d4",
			"firstName": "Reinaldos",
			"lastName": "Berrecloth"
		},
		{
			"id": "6737ef06b0be9c824c4eecdb21b169b1",
			"firstName": "Sandie",
			"lastName": "Muzzullo"
		},
		{
			"id": "d4cac79e53384381139905b79963dbaa",
			"firstName": "Edita",
			"lastName": "Yerson"
		},
		{
			"id": "6288c4367f3f6d8c17a46d3f573a5c08",
			"firstName": "Byrom",
			"lastName": "Kick"
		},
		{
			"id": "3bb0cf78ef0fccd8f0e1f985c5aa50fd",
			"firstName": "Imogene",
			"lastName": "Borgesio"
		},
		{
			"id": "4b1674b0626c163ea3eb2fde9fad4dd4",
			"firstName": "Christopher",
			"lastName": "Lenaghen"
		},
		{
			"id": "5638f71f280492ebc57f0b3565cb2004",
			"firstName": "Corby",
			"lastName": "Hawkslee"
		},
		{
			"id": "ee06fabc82d44d75c857014490218431",
			"firstName": "Nicki",
			"lastName": "Swigger"
		},
		{
			"id": "39fef35b7c372da1f20bc34deb8966e1",
			"firstName": "Sigismond",
			"lastName": "Chamberlain"
		},
		{
			"id": "71d7ce654eb8ad44e1932816cdaa243c",
			"firstName": "Berkeley",
			"lastName": "Sousa"
		},
		{
			"id": "bbe0991ecf499041bf994d99376c346a",
			"firstName": "Myca",
			"lastName": "Auguste"
		},
		{
			"id": "eae80c09ed3f6374744d42149d15272b",
			"firstName": "Hussein",
			"lastName": "Rikkard"
		},
		{
			"id": "4603499bb648c48f1e6d015f85e74fc1",
			"firstName": "Bertha",
			"lastName": "Batstone"
		},
		{
			"id": "04cb39f5dff900bac97bda939eceb69c",
			"firstName": "Andria",
			"lastName": "McKeefry"
		},
		{
			"id": "eef7c32c4d6186ff9f517806b5da06c1",
			"firstName": "Jenda",
			"lastName": "Haddleston"
		},
		{
			"id": "aff0d205a0554d248d88d8f29e4bb58c",
			"firstName": "Kiersten",
			"lastName": "Heindrich"
		},
		{
			"id": "616178db82ceb678bdebd8087f851ed8",
			"firstName": "Stanly",
			"lastName": "Moughton"
		},
		{
			"id": "c72d9bb5eb7c5ef46c20fdbc30c15b3b",
			"firstName": "Phylis",
			"lastName": "Dunnett"
		},
		{
			"id": "e5109d32532d0a9c3f9e62695a9978e4",
			"firstName": "Bryce",
			"lastName": "Minchenton"
		},
		{
			"id": "3734ffb74c8292251919184e26aba571",
			"firstName": "Delila",
			"lastName": "Rosel"
		},
		{
			"id": "079a0ac61bc0a39e330f27cb24466b33",
			"firstName": "Julio",
			"lastName": "Miller"
		},
		{
			"id": "c3a24e026ae94cf59b65552086db4f6a",
			"firstName": "Jilleen",
			"lastName": "Blakeborough"
		},
		{
			"id": "e362b5638a3e176499c4f6da091ab2b8",
			"firstName": "Charlotte",
			"lastName": "Gratrix"
		},
		{
			"id": "d0d186cade2e3a24f464f3f2da2d8664",
			"firstName": "Matthieu",
			"lastName": "Adam"
		},
		{
			"id": "76a4208ca97b3b1cdcfcfa2b9cdd9132",
			"firstName": "Luca",
			"lastName": "Le Claire"
		},
		{
			"id": "08d54c5e0fcee358e4cde4b357e5874b",
			"firstName": "Chloris",
			"lastName": "Skirvane"
		},
		{
			"id": "7200222d49f157d041c6ea6cb883f448",
			"firstName": "Leone",
			"lastName": "Gomery"
		}
	]
}